{
  "type": "FeatureCollection",
  "features": [
    {
      "type": "Feature",
      "properties": {
        "norad_id": 43057,
        "name": "GSAT0217 (GALILEO 21)",
        "group": "gnss",
        "lat": 50.64126206703642,
        "lon": -11.6755371670377,
        "alt_km": 23220.62380452969,
        "timestamp": "2025-12-18T10:51:26.047337+00:00",
        "meta_object_name": "GSAT0217 (GALILEO 21)",
        "meta_object_id": "2017-079C",
        "meta_epoch": "2025-12-16T12:20:28.313376",
        "meta_mean_motion": 1.70474073,
        "meta_eccentricity": 0.00027918,
        "meta_inclination": 55.1271,
        "meta_ra_of_asc_node": 226.5317,
        "meta_arg_of_pericenter": 347.0782,
        "meta_mean_anomaly": 13.0112,
        "meta_ephemeris_type": 0,
        "meta_classification_type": "U",
        "meta_norad_cat_id": 43057,
        "meta_element_set_no": 999,
        "meta_rev_at_epoch": 4987,
        "meta_bstar": 0,
        "meta_mean_motion_dot": 5e-07,
        "meta_mean_motion_ddot": 0,
        "tle_line1": "1 43057U 17079C   25350.51421659  .00000050  00000+0  00000+0 0  9994",
        "tle_line2": "2 43057  55.1271 226.5317 0002791 347.0782  13.0112  1.70474073 49877"
      },
      "geometry": {
        "type": "Point",
        "coordinates": [
          -11.6755371670377,
          50.64126206703642
        ]
      }
    },
    {
      "type": "Feature",
      "properties": {
        "norad_id": 43058,
        "name": "GSAT0218 (GALILEO 22)",
        "group": "gnss",
        "lat": -20.73253057172949,
        "lon": -148.80503499481094,
        "alt_km": 23217.58506029094,
        "timestamp": "2025-12-18T10:51:26.047352+00:00",
        "meta_object_name": "GSAT0218 (GALILEO 22)",
        "meta_object_id": "2017-079D",
        "meta_epoch": "2025-12-12T15:04:31.769472",
        "meta_mean_motion": 1.70474063,
        "meta_eccentricity": 0.00028411,
        "meta_inclination": 55.1287,
        "meta_ra_of_asc_node": 226.6365,
        "meta_arg_of_pericenter": 306.3289,
        "meta_mean_anomaly": 53.7237,
        "meta_ephemeris_type": 0,
        "meta_classification_type": "U",
        "meta_norad_cat_id": 43058,
        "meta_element_set_no": 999,
        "meta_rev_at_epoch": 4983,
        "meta_bstar": 0,
        "meta_mean_motion_dot": 1.7e-07,
        "meta_mean_motion_ddot": 0,
        "tle_line1": "1 43058U 17079D   25346.62814548  .00000017  00000+0  00000+0 0  9998",
        "tle_line2": "2 43058  55.1287 226.6365 0002841 306.3289  53.7237  1.70474063 49839"
      },
      "geometry": {
        "type": "Point",
        "coordinates": [
          -148.80503499481094,
          -20.73253057172949
        ]
      }
    },
    {
      "type": "Feature",
      "properties": {
        "norad_id": 43107,
        "name": "BEIDOU-3 M7 (C27)",
        "group": "gnss",
        "lat": 29.24476895571445,
        "lon": -27.865591453941732,
        "alt_km": 21517.898351967247,
        "timestamp": "2025-12-18T10:51:26.047364+00:00",
        "meta_object_name": "BEIDOU-3 M7 (C27)",
        "meta_object_id": "2018-003A",
        "meta_epoch": "2025-12-17T07:45:51.117120",
        "meta_mean_motion": 1.86232475,
        "meta_eccentricity": 0.00027428,
        "meta_inclination": 54.4925,
        "meta_ra_of_asc_node": 308.6547,
        "meta_arg_of_pericenter": 69.5375,
        "meta_mean_anomaly": 290.4783,
        "meta_ephemeris_type": 0,
        "meta_classification_type": "U",
        "meta_norad_cat_id": 43107,
        "meta_element_set_no": 999,
        "meta_rev_at_epoch": 5396,
        "meta_bstar": 0,
        "meta_mean_motion_dot": -9.2e-07,
        "meta_mean_motion_ddot": 0,
        "tle_line1": "1 43107U 18003A   25351.32350830 -.00000092  00000+0  00000+0 0  9997",
        "tle_line2": "2 43107  54.4925 308.6547 0002742  69.5375 290.4783  1.86232475 53963"
      },
      "geometry": {
        "type": "Point",
        "coordinates": [
          -27.865591453941732,
          29.24476895571445
        ]
      }
    },
    {
      "type": "Feature",
      "properties": {
        "norad_id": 43108,
        "name": "BEIDOU-3 M8 (C28)",
        "group": "gnss",
        "lat": 51.398067805620286,
        "lon": 11.933073071848659,
        "alt_km": 21533.96781736284,
        "timestamp": "2025-12-18T10:51:26.047377+00:00",
        "meta_object_name": "BEIDOU-3 M8 (C28)",
        "meta_object_id": "2018-003B",
        "meta_epoch": "2025-12-17T06:26:34.084320",
        "meta_mean_motion": 1.8623095,
        "meta_eccentricity": 0.00046498,
        "meta_inclination": 54.4854,
        "meta_ra_of_asc_node": 308.6394,
        "meta_arg_of_pericenter": 276.4476,
        "meta_mean_anomaly": 83.4857,
        "meta_ephemeris_type": 0,
        "meta_classification_type": "U",
        "meta_norad_cat_id": 43108,
        "meta_element_set_no": 999,
        "meta_rev_at_epoch": 5397,
        "meta_bstar": 0,
        "meta_mean_motion_dot": -9.2e-07,
        "meta_mean_motion_ddot": 0,
        "tle_line1": "1 43108U 18003B   25351.26845005 -.00000092  00000+0  00000+0 0  9994",
        "tle_line2": "2 43108  54.4854 308.6394 0004649 276.4476  83.4857  1.86230950 53973"
      },
      "geometry": {
        "type": "Point",
        "coordinates": [
          11.933073071848659,
          51.398067805620286
        ]
      }
    },
    {
      "type": "Feature",
      "properties": {
        "norad_id": 43207,
        "name": "BEIDOU-3 M4 (C22)",
        "group": "gnss",
        "lat": 34.27622169690606,
        "lon": -137.66912062120983,
        "alt_km": 21531.29453690299,
        "timestamp": "2025-12-18T10:51:26.047389+00:00",
        "meta_object_name": "BEIDOU-3 M4 (C22)",
        "meta_object_id": "2018-018A",
        "meta_epoch": "2025-12-17T17:03:00.962784",
        "meta_mean_motion": 1.86231343,
        "meta_eccentricity": 0.00041109,
        "meta_inclination": 56.4905,
        "meta_ra_of_asc_node": 69.1395,
        "meta_arg_of_pericenter": 7.1721,
        "meta_mean_anomaly": 352.8599,
        "meta_ephemeris_type": 0,
        "meta_classification_type": "U",
        "meta_norad_cat_id": 43207,
        "meta_element_set_no": 999,
        "meta_rev_at_epoch": 5336,
        "meta_bstar": 0,
        "meta_mean_motion_dot": -7e-07,
        "meta_mean_motion_ddot": 0,
        "tle_line1": "1 43207U 18018A   25351.71042781 -.00000070  00000+0  00000+0 0  9996",
        "tle_line2": "2 43207  56.4905  69.1395 0004110   7.1721 352.8599  1.86231343 53363"
      },
      "geometry": {
        "type": "Point",
        "coordinates": [
          -137.66912062120983,
          34.27622169690606
        ]
      }
    },
    {
      "type": "Feature",
      "properties": {
        "norad_id": 43208,
        "name": "BEIDOU-3 M3 (C21)",
        "group": "gnss",
        "lat": 56.40567206830888,
        "lon": 164.33290474594847,
        "alt_km": 21535.27877542871,
        "timestamp": "2025-12-18T10:51:26.047402+00:00",
        "meta_object_name": "BEIDOU-3 M3 (C21)",
        "meta_object_id": "2018-018B",
        "meta_epoch": "2025-12-17T18:38:47.514912",
        "meta_mean_motion": 1.8623152,
        "meta_eccentricity": 0.00067422,
        "meta_inclination": 56.4896,
        "meta_ra_of_asc_node": 69.1416,
        "meta_arg_of_pericenter": 315.779,
        "meta_mean_anomaly": 44.1937,
        "meta_ephemeris_type": 0,
        "meta_classification_type": "U",
        "meta_norad_cat_id": 43208,
        "meta_element_set_no": 999,
        "meta_rev_at_epoch": 5336,
        "meta_bstar": 0,
        "meta_mean_motion_dot": -6.9e-07,
        "meta_mean_motion_ddot": 0,
        "tle_line1": "1 43208U 18018B   25351.77693883 -.00000069  00000+0  00000+0 0  9996",
        "tle_line2": "2 43208  56.4896  69.1416 0006742 315.7790  44.1937  1.86231520 53368"
      },
      "geometry": {
        "type": "Point",
        "coordinates": [
          164.33290474594847,
          56.40567206830888
        ]
      }
    },
    {
      "type": "Feature",
      "properties": {
        "norad_id": 43245,
        "name": "BEIDOU-3 M9 (C29)",
        "group": "gnss",
        "lat": -39.905986040483825,
        "lon": -90.58797579355321,
        "alt_km": 21528.997358697412,
        "timestamp": "2025-12-18T10:51:26.047414+00:00",
        "meta_object_name": "BEIDOU-3 M9 (C29)",
        "meta_object_id": "2018-029A",
        "meta_epoch": "2025-12-17T10:56:56.120640",
        "meta_mean_motion": 1.86228468,
        "meta_eccentricity": 0.00015623,
        "meta_inclination": 54.3612,
        "meta_ra_of_asc_node": 306.303,
        "meta_arg_of_pericenter": 285.5475,
        "meta_mean_anomaly": 74.4222,
        "meta_ephemeris_type": 0,
        "meta_classification_type": "U",
        "meta_norad_cat_id": 43245,
        "meta_element_set_no": 999,
        "meta_rev_at_epoch": 5251,
        "meta_bstar": 0,
        "meta_mean_motion_dot": -9e-07,
        "meta_mean_motion_ddot": 0,
        "tle_line1": "1 43245U 18029A   25351.45620510 -.00000090  00000+0  00000+0 0  9995",
        "tle_line2": "2 43245  54.3612 306.3030 0001562 285.5475  74.4222  1.86228468 52515"
      },
      "geometry": {
        "type": "Point",
        "coordinates": [
          -90.58797579355321,
          -39.905986040483825
        ]
      }
    }
  ]
}